MOLNIYA 2-9             
1 07276U 74026A   23027.39425978  .00000173  00000+0  00000+0 0  9991
2 07276  64.2833 196.4685 6400485 278.3354  18.5594  2.45096429254709
MOLNIYA 2-10            
1 07376U 74056A   23027.14403563 -.00000537  00000+0  00000+0 0  9999
2 07376  64.4671  71.3839 6777484 284.8349  13.7441  2.01200064354855
MOLNIYA 1-S             
1 07392U 74060A   23027.91567179  .00000150  00000+0  00000+0 0  9991
2 07392   4.5495 279.4649 0010003 215.4770   3.3397  1.00258489121760
MOLNIYA 1-29            
1 07780U 75036A   23027.49517097  .00000121  00000+0 -87431-1 0  9997
2 07780  63.4154 190.9358 6802641 287.7180  12.7484  2.00582406350115
MOLNIYA 2-14            
1 08195U 75081A   23027.34560146 -.00000975  00000+0  00000+0 0  9997
2 08195  63.3942 164.3859 6730843 291.9706  12.0563  2.02091825347418
MOLNIYA 1-32            
1 08601U 76006A   23026.99471769 -.00000618  00000+0  00000+0 0  9993
2 08601  63.5512 267.4319 7148745 283.9187  11.7774  2.00086155 57135
MOLNIYA 1-36            
1 09880U 77021A   23027.51826424 -.00001232  00000+0  00000+0 0  9995
2 09880  63.4737 239.8910 7062061 289.5090  10.8706  2.00574748233865
MOLNIYA 3-8             
1 10455U 77105A   23027.80600344 -.00001161  00000+0  21697-2 0  9990
2 10455  63.4320 324.0366 7324936 282.6102  11.0323  2.00487307331642
MOLNIYA 1-40            
1 10925U 78055A   23026.97035631 -.00000982  00000+0  00000+0 0  9997
2 10925  63.5756  16.1634 7270390 280.7321  11.7150  2.00633235327161
MOLNIYA 3-10            
1 11057U 78095A   23027.81182512 -.00000207  00000+0 -48867-3 0  9991
2 11057  63.2479 317.0122 5773924 312.0101  11.5218  4.09877462392928
MOLNIYA 3-13            
1 11896U 80063A   23027.24938042 -.00000173  00000+0  00000+0 0  9998
2 11896  62.7745 108.2350 7166110 276.6948  13.5089  2.00609886311584
MOLNIYA 1-49            
1 12156U 81009A   23027.78683103 -.00000962  00000+0  12543-2 0  9997
2 12156  61.6899 130.4340 7348269 265.9377  15.5191  2.05714757226133
MOLNIYA 1-52            
1 13012U 81123A   23027.23223829  .00001612  00000+0  18103-1 0  9990
2 13012  61.6388 246.6146 7193038 257.9697  20.1519  2.00671498301061
MOLNIYA 1-53            
1 13070U 82015A   23027.44169447 -.00000480  00000+0 -31847-1 0  9997
2 13070  62.5368 187.1107 6967455 283.1466  12.9771  2.00370481299754
MOLNIYA 3-20            
1 13875U 83015A   23026.83494161 -.00000282  00000+0 -28421-3 0  9993
2 13875  62.5722 317.2912 7379874 260.2761  17.4654  2.00869694228197
MOLNIYA 1-56            
1 13890U 83019A   23027.24669440 -.00001499  00000+0  75668-3 0  9999
2 13890  62.8721 341.8757 7445176 266.1183  14.7567  2.00013291291072
MOLNIYA 1-62            
1 15214U 84089A   23023.65714639  .00000539 -77502-6  00000+0 0  9997
2 15214  62.9136 334.3794 7317995 273.7064  13.5933  2.27458351248987
MOLNIYA 1-63            
1 15429U 84124A   23027.25856993 -.00000999  00000+0  00000+0 0  9997
2 15429  63.7125 145.9450 6728213 258.0506  19.1669  2.00700507279247
MOLNIYA 3-24            
1 15738U 85040A   23028.09632168 -.00000061  00000+0  22423-2 0  9993
2 15738  63.5678  40.2099 6868922 247.2396  30.0498  2.55630872309643
MOLNIYA 3-27            
1 16393U 85117A   23025.45183314 -.00000160  00000+0  00000+0 0  9991
2 16393  64.2705  51.8681 7060125 247.0452  27.8282  2.12398086278894
MOLNIYA 1-69            
1 17078U 86089A   23024.10890765  .00001163  00000+0  00000+0 0  9990
2 17078  64.0201 165.3787 6713486 256.2876  26.0059  2.00787870265257
MOLNIYA 3-31            
1 17328U 87008A   23026.23441184 -.00000277  00000+0  00000+0 0  9999
2 17328  63.6502 101.2931 7152144 253.2003  22.9760  2.00671068260331
MOLNIYA 1-71            
1 18946U 88017A   23027.72381148  .00000029  00000+0  00000+0 0  9999
2 18946  63.3333  93.4338 7263089 256.3470  20.2011  2.00576114255591
MOLNIYA 1-75            
1 19807U 89014A   23024.97475727 -.00000312  00000+0  00000+0 0  9991
2 19807  63.9530 260.6838 6776741 265.8548  20.6000  2.00534195248441
MOLNIYA 1-80            
1 21118U 91012A   23026.78223512 -.00001004  00000+0  00000+0 0  9993
2 21118  65.1843 308.8966 6729291 274.7173  17.5160  2.05247307235560
MOLNIYA 3-40            
1 21196U 91022A   23027.95903174  .00001114  00000+0  00000+0 0  9990
2 21196  65.0607 302.4933 6755866 271.5906  18.4655  2.03002176234214
MOLNIYA 1-81            
1 21426U 91043A   23026.83581838 -.00000152  00000+0  00000+0 0  9996
2 21426  63.9769 315.8504 7060187 265.7798  18.1629  2.00611210231642
MOLNIYA 3-41            
1 21706U 91065A   23027.52450482  .00001204  00000+0  00000+0 0  9996
2 21706  64.0811 141.0645 6942849 253.8429  24.9231  2.04343890231509
MOLNIYA 3-42            
1 22178U 92067A   23027.44393139  .00000209  00000+0  00000+0 0  9993
2 22178  64.6768 192.5192 6421065 263.3422  25.1029  2.20434536 84992
MOLNIYA 1-86            
1 22671U 93035A   23028.14776861  .00000174  00000+0  32976-3 0  9994
2 22671  63.0831 106.1196 4856486  10.7133 356.7880  5.62779012364897
MOLNIYA 1-87            
1 22949U 93079A   23024.88065539  .00000868  00000+0  00000+0 0  9999
2 22949  64.2325  66.6500 6922704 282.9292  13.3380  2.02848177 79426
MOLNIYA 1-88            
1 23420U 94081A   23028.31030019  .00000081  00000+0  00000+0 0  9992
2 23420  64.2802 146.2603 5799421 278.8297  23.1303  3.34495826254464
MOLNIYA 3-47            
1 23642U 95042A   23027.08562095 -.00000762  00000+0  00000+0 0  9990
2 23642  64.3901  47.8721 6961038 283.1706  13.0151  2.01984207201536
MOLNIYA 1-90            
1 24960U 97054A   23027.13622075  .00000079  00000+0  21591-2 0  9991
2 24960  63.7150 112.1938 6098031 297.0135  14.2867  3.18689439215135
MOLNIYA 1-91            
1 25485U 98054A   23027.34081162  .00000123  00000+0  22925-2 0  9996
2 25485  63.1412 115.4154 6775398 291.8310 180.3463  2.36443902183676
MOLNIYA 3-50            
1 25847U 99036A   23026.78748452 -.00000342  00000+0 -28329-3 0  9998
2 25847  63.3008 300.6482 7311517 282.6033  11.1445  2.00634800172593
